H1 CPF 01  gfz 2021 06 09 00  6601 tandemx   
H2 1003001  6202 36605    2021 06 09 00 59 42 2021 06 14 00 00 42   120 1 1  0 0 0
H9
10 0 59375  49662.000000  0   -3181938.395  -5766921.671  -2028876.511
10 0 59375  49782.000000  0   -3181545.633  -5397606.202  -2872865.168
10 0 59375  49902.000000  0   -3118418.540  -4934769.403  -3666426.165
10 0 59375  50022.000000  0   -2992159.126  -4387670.272  -4395697.362
10 0 59375  50142.000000  0   -2803641.778  -3767015.257  -5047975.131
10 0 59375  50262.000000  0   -2555015.049  -3084740.709  -5611929.535
10 0 59375  50382.000000  0   -2249678.473  -2353777.092  -6077792.368
10 0 59375  50502.000000  0   -1892234.302  -1587800.154  -6437516.186
10 0 59375  50622.000000  0   -1488415.392   -800973.831  -6684901.769
10 0 59375  50742.000000  0   -1044992.403     -7690.478  -6815693.214
10 0 59375  50862.000000  0    -569661.581    777686.852  -6827642.363
10 0 59375  50982.000000  0     -70913.413   1541077.620  -6720543.253
10 0 59375  51102.000000  0     442114.280   2268929.274  -6496235.161
10 0 59375  51222.000000  0     959799.193   2948452.937  -6158576.776
10 0 59375  51342.000000  0    1472211.520   3567846.003  -5713386.838
10 0 59375  51462.000000  0    1969299.962   4116496.801  -5168353.146
10 0 59375  51582.000000  0    2441086.028   4585169.326  -4532911.769
10 0 59375  51702.000000  0    2877862.819   4966165.514  -3818094.659
10 0 59375  51822.000000  0    3270393.860   5253459.935  -3036347.143
10 0 59375  51942.000000  0    3610109.134   5442804.647  -2201318.092
10 0 59375  52062.000000  0    3889292.888   5531800.042  -1327624.113
10 0 59375  52182.000000  0    4101257.940   5519930.297   -430592.679
10 0 59375  52302.000000  0    4240502.135   5408561.284    474011.630
10 0 59375  52422.000000  0    4302842.831   5200899.693   1370271.502
10 0 59375  52542.000000  0    4285524.500   4901914.740   2242404.209
10 0 59375  52662.000000  0    4187299.866   4518227.261   3075048.186
10 0 59375  52782.000000  0    4008477.997   4057962.518   3853543.241
10 0 59375  52902.000000  0    3750940.186   3530574.820   4564192.743
10 0 59375  53022.000000  0    3418126.140   2946649.375   5194507.274
10 0 59375  53142.000000  0    3014985.099   2317684.160   5733426.165
10 0 59375  53262.000000  0    2547897.695   1655857.749   6171505.686
10 0 59375  53382.000000  0    2024571.830    973789.826   6501079.484
10 0 59375  53502.000000  0    1453911.743    284298.195   6716386.150
10 0 59375  53622.000000  0     845863.981   -399841.073   6813664.399
10 0 59375  53742.000000  0     211242.994  -1066130.236   6791216.125
10 0 59375  53862.000000  0    -438461.647  -1702578.410   6649433.856
10 0 59375  53982.000000  0   -1091293.307  -2297917.319   6390793.664
10 0 59375  54102.000000  0   -1735047.151  -2841800.771   6019812.970
10 0 59375  54222.000000  0   -2357495.806  -3324985.048   5542977.139
10 0 59375  54342.000000  0   -2946622.477  -3739489.878   4968634.316
10 0 59375  54462.000000  0   -3490857.432  -4078735.366   4306855.275
10 0 59375  54582.000000  0   -3979309.303  -4337650.817   3569259.999
10 0 59375  54702.000000  0   -4401986.483  -4512754.308   2768815.688
10 0 59375  54822.000000  0   -4750005.406  -4602201.681   1919609.238
10 0 59375  54942.000000  0   -5015780.855  -4605802.582   1036595.600
10 0 59375  55062.000000  0   -5193192.150  -4525002.089    135328.220
10 0 59375  55182.000000  0   -5277721.452  -4362829.052   -768322.941
10 0 59375  55302.000000  0   -5266560.308  -4123812.175  -1658460.387
10 0 59375  55422.000000  0   -5158680.654  -3813864.880  -2519448.386
10 0 59375  55542.000000  0   -4954868.569  -3440142.976  -3336193.892
10 0 59375  55662.000000  0   -4657721.942  -3010880.320  -4094413.798
10 0 59375  55782.000000  0   -4271612.854  -2535206.472  -4780884.241
10 0 59375  55902.000000  0   -3802615.201  -2022950.742  -5383667.075
10 0 59375  56022.000000  0   -3258400.657  -1484437.856  -5892309.859
10 0 59375  56142.000000  0   -2648106.023   -930279.406  -6298017.038
10 0 59375  56262.000000  0   -1982174.480   -371165.875  -6593790.837
10 0 59375  56382.000000  0   -1272173.710    182336.567  -6774539.913
10 0 59375  56502.000000  0    -530596.616    719980.503  -6837156.226
10 0 59375  56622.000000  0     229353.910   1232022.026  -6780562.774
10 0 59375  56742.000000  0     993993.291   1709392.067  -6605730.200
10 0 59375  56862.000000  0    1749396.146   2143853.692  -6315664.360
10 0 59375  56982.000000  0    2481644.835   2528142.676  -5915359.951
10 0 59375  57102.000000  0    3177082.343   2856088.866  -5411722.919
10 0 59375  57222.000000  0    3822564.096   3122716.112  -4813462.138
10 0 59375  57342.000000  0    4405708.166   3324321.034  -4130951.253
10 0 59375  57462.000000  0    4915137.685   3458527.094  -3376058.726
10 0 59375  57582.000000  0    5340708.874   3524312.466  -2561948.630
10 0 59375  57702.000000  0    5673720.419   3522012.248  -1702856.066
10 0 59375  57822.000000  0    5907099.493   3453292.540   -813838.395
10 0 59375  57942.000000  0    6035557.738   3321096.725     89491.560
10 0 59375  58062.000000  0    6055714.405   3129565.225    991245.501
10 0 59375  58182.000000  0    5966181.670   2883930.115   1875547.212
10 0 59375  58302.000000  0    5767609.350   2590388.423   2726820.555
10 0 59375  58422.000000  0    5462689.294   2255956.041   3530072.910
10 0 59375  58542.000000  0    5056116.899   1888305.778   4271166.399
10 0 59375  58662.000000  0    4554511.921   1495594.814   4937070.206
10 0 59375  58782.000000  0    3966304.255   1086285.572   5516089.344
10 0 59375  58902.000000  0    3301583.541    668964.505   5998070.395
10 0 59375  59022.000000  0    2571916.038    252162.695   6374573.598
10 0 59375  59142.000000  0    1790138.312   -155816.342   6639013.472
10 0 59375  59262.000000  0     970128.475   -547060.526   6786769.350
10 0 59375  59382.000000  0     126556.828   -914201.966   6815262.071
10 0 59375  59502.000000  0    -725377.353  -1250554.867   6723995.147
10 0 59375  59622.000000  0   -1570219.109  -1550237.345   6514562.121
10 0 59375  59742.000000  0   -2392536.651  -1808274.077   6190619.147
10 0 59375  59862.000000  0   -3177201.223  -2020678.316   5757826.295
10 0 59375  59982.000000  0   -3909668.529  -2184514.734   5223757.191
10 0 59375  60102.000000  0   -4576253.872  -2297940.486   4597771.487
10 0 59375  60222.000000  0   -5164394.166  -2360222.738   3890854.932
10 0 59375  60342.000000  0   -5662891.718  -2371731.801   3115429.334
10 0 59375  60462.000000  0   -6062135.482  -2333911.014   2285136.114
10 0 59375  60582.000000  0   -6354295.867  -2249224.905   1414595.407
10 0 59375  60702.000000  0   -6533486.416  -2121084.800    519142.017
10 0 59375  60822.000000  0   -6595885.496  -1953753.391   -385452.319
10 0 59375  60942.000000  0   -6539818.365  -1752231.312  -1283265.894
10 0 59375  61062.000000  0   -6365794.242  -1522128.823  -2158516.652
10 0 59375  61182.000000  0   -6076499.262  -1269526.268  -2995846.764
10 0 59375  61302.000000  0   -5676746.309  -1000826.951  -3780596.640
10 0 59375  61422.000000  0   -5173383.775   -722605.761  -4499062.978
10 0 59375  61542.000000  0   -4575165.899   -441457.233  -5138735.801
10 0 59375  61662.000000  0   -3892588.095   -163847.458  -5688510.314
10 0 59375  61782.000000  0   -3137691.883    104027.168  -6138870.144
10 0 59375  61902.000000  0   -2323845.439    356371.423  -6482039.764
10 0 59375  62022.000000  0   -1465504.237    587909.810  -6712107.129
10 0 59375  62142.000000  0    -577954.920    793990.992  -6825115.073
10 0 59375  62262.000000  0     322952.090    970677.538  -6819120.665
10 0 59375  62382.000000  0    1221077.403   1114817.867  -6694225.336
10 0 59375  62502.000000  0    2100275.516   1224101.119  -6452575.908
10 0 59375  62622.000000  0    2944679.488   1297094.160  -6098331.558
10 0 59375  62742.000000  0    3738983.112   1333259.235  -5637598.742
10 0 59375  62862.000000  0    4468715.477   1332952.231  -5078336.127
10 0 59375  62982.000000  0    5120507.055   1297402.051  -4430229.456
10 0 59375  63102.000000  0    5682340.848   1228671.040  -3704534.167
10 0 59375  63222.000000  0    6143782.462   1129596.628  -2913888.933
10 0 59375  63342.000000  0    6496185.264   1003715.276  -2072102.449
10 0 59375  63462.000000  0    6732865.615    855170.551  -1193914.540
10 0 59375  63582.000000  0    6849241.307    688606.311   -294735.865
10 0 59375  63702.000000  0    6842928.910    509048.341    609627.555
10 0 59375  63822.000000  0    6713798.807    321777.586   1503258.693
10 0 59375  63942.000000  0    6463985.765    132196.455   2370418.783
10 0 59375  64062.000000  0    6097851.937    -54306.549   3195834.056
10 0 59375  64182.000000  0    5621905.263   -232491.718   3964972.160
10 0 59375  64302.000000  0    5044675.257   -397397.040   4664302.100
10 0 59375  64422.000000  0    4376551.753   -544460.020   5281535.316
10 0 59375  64542.000000  0    3629586.136   -669628.877   5805840.786
10 0 59375  64662.000000  0    2817264.845   -769459.406   6228030.689
10 0 59375  64782.000000  0    1954258.811   -841197.093   6540716.045
10 0 59375  64902.000000  0    1056154.165   -882842.509   6738431.004
10 0 59375  65022.000000  0     139166.771   -893198.895   6817723.221
10 0 59375  65142.000000  0    -780151.454   -871900.690   6777209.046
10 0 59375  65262.000000  0   -1685210.253   -819423.279   6617595.357
10 0 59375  65382.000000  0   -2559678.946   -737072.857   6341667.603
10 0 59375  65502.000000  0   -3387779.895   -626957.082   5954244.987
10 0 59375  65622.000000  0   -4154575.265   -491936.859   5462102.816
10 0 59375  65742.000000  0   -4846241.845   -335560.591   4873860.572
10 0 59375  65862.000000  0   -5450327.566   -161981.465   4199835.919
10 0 59375  65982.000000  0   -5955984.336     24140.477   3451867.215
10 0 59375  66102.000000  0   -6354171.865    217749.675   2643107.775
99
